APRIZESAT 2             
1 28366U 04025A   25065.52069943  .00000498  00000+0  16873-3 0  9990
2 28366  98.0757 253.9551 0105307 221.6890 137.6238 14.37694207 84439
SAUDICOMSAT 1           
1 28369U 04025D   25065.52100373  .00001025  00000+0  24865-3 0  9993
2 28369  98.5655  58.4342 0032928  17.9619 342.2733 14.54830052 96114
SAUDICOMSAT 2           
1 28370U 04025E   25065.73863103  .00000649  00000+0  17912-3 0  9991
2 28370  98.6563  60.0238 0054933 234.4369 125.1696 14.49448566 92375
APRIZESAT 1             
1 28372U 04025G   25065.53114467  .00000573  00000+0  15412-3 0  9992
2 28372  98.6199  58.8312 0045880 135.7680 224.7196 14.51307080 94067
NANOSAT-1               
1 28493U 04049B   25065.60259704  .00002343  00000+0  32863-3 0  9990
2 28493  98.1646 188.1726 0004014  11.8265 348.3039 14.78445561 86310
SAUDICOMSAT 7           
1 31119U 07012C   25065.46796709  .00001247  00000+0  23669-3 0  9993
2 31119  98.3157  27.1773 0055645 221.4026 138.2953 14.65085361953927
SAUDICOMSAT 6           
1 31121U 07012E   25065.41393920  .00001682  00000+0  33626-3 0  9996
2 31121  98.3465  21.4235 0072717 344.6057  15.2931 14.61597594951822
SAUDICOMSAT 5           
1 31124U 07012H   25065.80834077  .00001346  00000+0  24498-3 0  9999
2 31124  98.2863  28.3903 0048864 154.6851 205.6763 14.67027163955032
SAUDICOMSAT 3           
1 31125U 07012J   25065.45948302  .00001899  00000+0  32579-3 0  9990
2 31125  98.2532  28.6788 0041647  90.7464 269.8514 14.69359781956103
SAUDICOMSAT 4           
1 31127U 07012L   25065.61725118  .00001480  00000+0  28747-3 0  9996
2 31127  98.3357  25.8261 0063136 279.7134  79.6940 14.63515254952969
APRIZESAT 4             
1 35684U 09041D   25065.72115050  .00001376  00000+0  17477-3 0  9994
2 35684  98.1981 125.5681 0044970  37.1183 323.3124 14.82711267842066
APRIZESAT 3             
1 35686U 09041F   25065.23187325  .00004696  00000+0  43064-3 0  9995
2 35686  98.1379 193.7666 0065068 170.0428 190.2097 14.93795090846454
AISSAT 1                
1 36797U 10035C   25065.65331013  .00003827  00000+0  36221-3 0  9997
2 36797  98.1497 302.9733 0009915 156.3862 203.7814 14.94248869794329
S-NET D                 
1 43186U 18014G   25065.67719464  .00008277  00000+0  50996-3 0  9993
2 43186  97.5704 329.6063 0009113 179.9457 180.1775 15.10192188388049
S-NET B                 
1 43187U 18014H   25065.68144782  .00008224  00000+0  50687-3 0  9999
2 43187  97.5706 329.5775 0010046 176.0010 184.1301 15.10175054388043
S-NET A                 
1 43188U 18014J   25065.67788841  .00008431  00000+0  51922-3 0  9992
2 43188  97.5715 329.7122 0009841 176.5643 183.5656 15.10196140388045
S-NET C                 
1 43189U 18014K   25065.68363229  .00008180  00000+0  50405-3 0  9999
2 43189  97.5731 329.7155 0011638 170.7030 189.4417 15.10170973386597
SALSAT                  
1 46495U 20068K   25065.66774819  .00011470  00000+0  52784-3 0  9991
2 46495  97.8521  39.5087 0013917 125.0372 235.2170 15.20416469244092
OOV-CUBE (TUBSAT-30)    
1 60240U 24128F   25065.46198671  .00004723  00000+0  39433-3 0  9999
2 60240  61.9970  52.5400 0041716  32.2966 328.0665 14.99299611 35895
